1 48274U 21035A   22159.07373103  .00002643  00000+0  35894-4 0  9996
2 48274  41.4720 274.3368 0004530 232.7931 308.5317 15.59949071 63340
